NORAD_CAT_ID,OBJECT_NAME,OBJECT_TYPE,EPOCH,MEAN_MOTION,ECCENTRICITY,INCLINATION,RA_OF_ASC_NODE,ARG_OF_PERICENTER,MEAN_ANOMALY,BSTAR,MEAN_MOTION_DOT,MEAN_MOTION_DDOT,TLE_LINE0,TLE_LINE1,TLE_LINE2,SEMIMAJOR_AXIS,PERIOD,APOGEE,PERIGEE,DECAYED
53711.0,STARLINK-4627,PAYLOAD,2024-04-17 04:32:50,15.08844255,0.0001491,53.2177,113.1914,104.1594,255.9564,0.00012129,1.643e-05,0.0,0 STARLINK-4627,1 53711U 22107M   24108.18947247  .00001643  00000-0  12129-3 0  9998,2 53711  53.2177 113.1914 0001491 104.1594 255.9564 15.08844255 89648,6917.867,95.437,540.764,538.701,0.0
53711.0,STARLINK-4627,PAYLOAD,2024-04-17 09:18:59,15.08844793,0.0001489,53.2166,112.2993,102.7537,257.3622,0.00012512,1.704e-05,0.0,0 STARLINK-4627,1 53711U 22107M   24108.38819102  .00001704  00000-0  12512-3 0  9992,2 53711  53.2166 112.2993 0001489 102.7537 257.3622 15.08844793 90113,6917.866,95.437,540.761,538.701,0.0
53711.0,STARLINK-4627,PAYLOAD,2024-04-18 04:23:37,15.08833155,0.0001453,53.2153,108.7299,100.6995,259.4161,-1.3707e-05,-5.06e-06,0.0,0 STARLINK-4627,1 53711U 22107M   24109.18307846 -.00000506  00000-0 -13707-4 0  9997,2 53711  53.2153 108.7299 0001453 100.6995 259.4161 15.08833155 89797,6917.901,95.438,540.771,538.761,0.0
53711.0,STARLINK-4627,PAYLOAD,2024-04-18 09:09:47,15.08832923,0.0001321,53.2165,107.837,94.1059,266.0085,1.8375e-07,-2.85e-06,0.0,0 STARLINK-4627,1 53711U 22107M   24109.38180375 -.00000285  00000-0  18375-6 0  9996,2 53711  53.2165 107.8370 0001321  94.1059 266.0085 15.08832923 90267,6917.902,95.438,540.681,538.853,0.0
53711.0,STARLINK-4627,PAYLOAD,2024-04-19 05:49:48,15.0884266,0.0001278,53.2171,103.9746,94.8911,265.2227,6.7818e-05,7.92e-06,0.0,0 STARLINK-4627,1 53711U 22107M   24110.24291809  .00000792  00000-0  67818-4 0  9994,2 53711  53.2171 103.9746 0001278  94.8911 265.2227 15.08842660 89955,6917.872,95.437,540.621,538.853,0.0
53711.0,STARLINK-4627,PAYLOAD,2024-04-20 05:40:34,15.08850999,0.0001383,53.216,99.5079,86.7468,273.3682,0.00033567,5.06e-05,0.0,0 STARLINK-4627,1 53711U 22107M   24111.23651312  .00005060  00000-0  33567-3 0  9999,2 53711  53.2160  99.5079 0001383  86.7468 273.3682 15.08850999 90542,6917.847,95.437,540.669,538.755,0.0
53711.0,STARLINK-4627,PAYLOAD,2024-04-21 03:55:59,15.08820284,0.0001311,53.2166,95.3433,112.299,247.8141,-0.00031645,-5.318e-05,0.0,0 STARLINK-4627,1 53711U 22107M   24112.16388683 -.00005318  00000-0 -31645-3 0  9993,2 53711  53.2166  95.3433 0001311 112.2990 247.8141 15.08820284 90249,6917.941,95.439,540.713,538.899,0.0
53711.0,STARLINK-4627,PAYLOAD,2024-04-21 08:42:09,15.08820628,0.0001433,53.2175,94.4517,124.2307,235.8821,-0.00028805,-4.867e-05,0.0,0 STARLINK-4627,1 53711U 22107M   24112.36260825 -.00004867  00000-0 -28805-3 0  9994,2 53711  53.2175  94.4517 0001433 124.2307 235.8821 15.08820628 90718,6917.94,95.439,540.796,538.813,0.0
53711.0,STARLINK-4627,PAYLOAD,2024-04-21 23:00:37,15.08831411,0.0001012,53.2169,91.78,115.4762,244.6335,-1.8929e-05,-5.89e-06,0.0,0 STARLINK-4627,1 53711U 22107M   24112.95876765 -.00000589  00000-0 -18929-4 0  9999,2 53711  53.2169  91.7800 0001012 115.4762 244.6335 15.08831411 90806,6917.907,95.438,540.472,539.072,0.0
53711.0,STARLINK-4627,PAYLOAD,2024-04-22 03:46:46,15.08836461,0.0001316,53.2173,90.8916,65.1151,294.9978,0.00018894,2.72e-05,0.0,0 STARLINK-4627,1 53711U 22107M   24113.15748805  .00002720  00000-0  18894-3 0  9992,2 53711  53.2173  90.8916 0001316  65.1151 294.9978 15.08836461 90394,6917.891,95.438,540.667,538.846,0.0
53711.0,STARLINK-4627,PAYLOAD,2024-04-22 08:32:56,15.08843314,0.0001054,53.2159,89.9981,97.6414,262.4698,0.00051915,7.985e-05,0.0,0 STARLINK-4627,1 53711U 22107M   24113.35620746  .00007985  00000-0  51915-3 0  9996,2 53711  53.2159  89.9981 0001054  97.6414 262.4698 15.08843314 90866,6917.87,95.437,540.464,539.006,0.0
53711.0,STARLINK-4627,PAYLOAD,2024-04-23 05:12:57,15.08841177,0.000127,53.2169,86.1269,119.8353,240.2766,0.00024116,3.552e-05,0.0,0 STARLINK-4627,1 53711U 22107M   24114.21733330  .00003552  00000-0  24116-3 0  9995,2 53711  53.2169  86.1269 0001270 119.8353 240.2766 15.08841177 90555,6917.877,95.437,540.62,538.863,0.0
53711.0,STARLINK-4627,PAYLOAD,2024-04-23 08:23:43,15.08843351,0.0001337,53.2169,85.5318,121.8344,238.2779,0.0002579,3.819e-05,0.0,0 STARLINK-4627,1 53711U 22107M   24114.34981254  .00003819  00000-0  25790-3 0  9994,2 53711  53.2169  85.5318 0001337 121.8344 238.2779 15.08843351 91019,6917.87,95.437,540.66,538.81,0.0
53711.0,STARLINK-4627,PAYLOAD,2024-04-24 08:14:30,15.08851764,0.0001102,53.217,81.0709,108.7963,251.3149,0.00036838,5.582e-05,0.0,0 STARLINK-4627,1 53711U 22107M   24115.34340882  .00005582  00000-0  36838-3 0  9995,2 53711  53.2170  81.0709 0001102 108.7963 251.3149 15.08851764 90728,6917.844,95.437,540.472,538.947,0.0
53711.0,STARLINK-4627,PAYLOAD,2024-04-25 04:54:31,15.08847396,9.98e-05,53.217,77.204,94.1612,265.9494,0.00011351,1.52e-05,0.0,0 STARLINK-4627,1 53711U 22107M   24116.20452667  .00001520  00000-0  11351-3 0  9997,2 53711  53.2170  77.2040 0000998  94.1612 265.9494 15.08847396 90858,6917.858,95.437,540.413,539.032,0.0
53711.0,STARLINK-4627,PAYLOAD,2024-04-25 06:29:54,15.08848841,0.0001027,53.2172,76.9066,97.519,262.5919,0.00014474,2.017e-05,0.0,0 STARLINK-4627,1 53711U 22107M   24116.27076606  .00002017  00000-0  14474-3 0  9990,2 53711  53.2172  76.9066 0001027  97.5190 262.5919 15.08848841 91308,6917.853,95.437,540.429,539.008,0.0
53711.0,STARLINK-4627,PAYLOAD,2024-04-26 04:45:18,15.08842564,0.000121,53.2183,72.7434,89.5902,270.5229,4.009e-05,3.5e-06,0.0,0 STARLINK-4627,1 53711U 22107M   24117.19812894  .00000350  00000-0  40090-4 0  9991,2 53711  53.2183  72.7434 0001210  89.5902 270.5229 15.08842564 91005,6917.873,95.437,540.575,538.9,0.0
53711.0,STARLINK-4627,PAYLOAD,2024-04-26 14:17:36,15.08858646,0.0001111,53.2178,70.9626,107.4912,252.6202,0.00026648,3.958e-05,0.0,0 STARLINK-4627,1 53711U 22107M   24117.59555731  .00003958  00000-0  26648-3 0  9998,2 53711  53.2178  70.9626 0001111 107.4912 252.6202 15.08858646 91508,6917.823,95.436,540.457,538.92,0.0
53711.0,STARLINK-4627,PAYLOAD,2024-04-27 03:00:42,15.08828285,0.0001109,53.2164,68.5851,98.9203,261.1915,-0.00015093,-2.688e-05,0.0,0 STARLINK-4627,1 53711U 22107M   24118.12549496 -.00002688  00000-0 -15093-3 0  9992,2 53711  53.2164  68.5851 0001109  98.9203 261.1915 15.08828285 91142,6917.916,95.438,540.548,539.014,0.0
53711.0,STARLINK-4627,PAYLOAD,2024-04-27 14:08:23,15.08849206,0.0001095,53.2178,66.505,85.2259,274.8858,0.00014331,1.994e-05,0.0,0 STARLINK-4627,1 53711U 22107M   24118.58916508  .00001994  00000-0  14331-3 0  9995,2 53711  53.2178  66.5050 0001095  85.2259 274.8858 15.08849206 91659,6917.852,95.437,540.475,538.96,0.0
53711.0,STARLINK-4627,PAYLOAD,2024-04-27 20:29:56,15.08848301,0.0002227,53.2161,65.3155,96.4926,263.632,0.00014796,2.068e-05,0.0,0 STARLINK-4627,1 53711U 22107M   24118.85413060  .00002068  00000-0  14796-3 0  9998,2 53711  53.2161  65.3155 0002227  96.4926 263.6320 15.08848301 91258,6917.855,95.437,541.261,538.179,0.0
53711.0,STARLINK-4627,PAYLOAD,2024-04-28 02:51:29,15.08833647,0.0001317,53.2176,64.1246,103.6392,256.4747,-5.0099e-05,-1.085e-05,0.0,0 STARLINK-4627,1 53711U 22107M   24119.11909702 -.00001085  00000-0 -50099-4 0  9998,2 53711  53.2176  64.1246 0001317 103.6392 256.4747 15.08833647 91293,6917.9,95.438,540.676,538.854,0.0
53711.0,STARLINK-4627,PAYLOAD,2024-04-28 06:02:16,15.08834606,0.0001412,53.2168,63.529,106.2769,253.8378,2.7491e-06,-2.44e-06,0.0,0 STARLINK-4627,1 53711U 22107M   24119.25157671 -.00000244  00000-0  27491-5 0  9999,2 53711  53.2168  63.5290 0001412 106.2769 253.8378 15.08834606 91757,6917.897,95.438,540.739,538.785,0.0
53711.0,STARLINK-4627,PAYLOAD,2024-04-29 05:53:03,15.08839638,0.0001226,53.2171,59.0693,81.6727,278.4404,0.00023459,3.448e-05,0.0,0 STARLINK-4627,1 53711U 22107M   24120.24517769  .00003448  00000-0  23459-3 0  9994,2 53711  53.2171  59.0693 0001226  81.6727 278.4404 15.08839638 91462,6917.881,95.438,540.595,538.898,0.0
53711.0,STARLINK-4627,PAYLOAD,2024-04-29 20:11:31,15.08835717,9.4e-05,53.2181,56.3934,82.8961,277.2138,0.00018246,2.617e-05,0.0,0 STARLINK-4627,1 53711U 22107M   24120.84133885  .00002617  00000-0  18246-3 0  9998,2 53711  53.2181  56.3934 0000940  82.8961 277.2138 15.08835717 91999,6917.893,95.438,540.409,539.108,0.0
53711.0,STARLINK-4627,PAYLOAD,2024-04-30 12:05:22,15.08852086,0.000131,53.2182,53.42,84.2865,275.8276,0.00022896,3.359e-05,0.0,0 STARLINK-4627,1 53711U 22107M   24121.50372958  .00003359  00000-0  22896-3 0  9998,2 53711  53.2182  53.4200 0001310  84.2865 275.8276 15.08852086 91653,6917.843,95.437,540.615,538.802,0.0
53711.0,STARLINK-4627,PAYLOAD,2024-05-01 02:23:51,15.08840645,0.0001358,53.2178,50.7468,86.2434,273.8714,9.9615e-06,-1.29e-06,0.0,0 STARLINK-4627,1 53711U 22107M   24122.09989727 -.00000129  00000-0  99615-5 0  9999,2 53711  53.2178  50.7468 0001358  86.2434 273.8714 15.08840645 91743,6917.878,95.438,540.683,538.804,0.0
53711.0,STARLINK-4627,PAYLOAD,2024-05-01 11:56:09,15.08852283,0.0001407,53.2188,48.9613,81.9788,278.1364,0.00018438,2.649e-05,0.0,0 STARLINK-4627,1 53711U 22107M   24122.49732843  .00002649  00000-0  18438-3 0  9998,2 53711  53.2188  48.9613 0001407  81.9788 278.1364 15.08852283 91801,6917.843,95.437,540.681,538.735,0.0
53711.0,STARLINK-4627,PAYLOAD,2024-05-02 03:50:01,15.08839979,0.0001636,53.2184,45.9901,93.1972,266.9208,3.6383e-05,2.91e-06,0.0,0 STARLINK-4627,1 53711U 22107M   24123.15973613  .00000291  00000-0  36383-4 0  9995,2 53711  53.2184  45.9901 0001636  93.1972 266.9208 15.08839979 91908,6917.88,95.438,540.877,538.614,0.0
53711.0,STARLINK-4627,PAYLOAD,2024-05-03 11:37:42,15.08859121,0.0001732,53.2174,40.041,65.5668,294.5505,0.000379,5.752e-05,0.0,0 STARLINK-4627,1 53711U 22107M   24124.48452410  .00005752  00000-0  37900-3 0  9991,2 53711  53.2174  40.0410 0001732  65.5668 294.5505 15.08859121 92101,6917.822,95.436,540.885,538.489,0.0
